{
  "type": "FeatureCollection",
  "features": [
    {
      "type": "Feature",
      "properties": {
        "norad_id": 33913,
        "name": "COSMOS 2251 DEB",
        "group": "cosmos-2251-debris",
        "lat": 14.760144096623655,
        "lon": -8.316421682684007,
        "alt_km": 744.4079836351029,
        "timestamp": "2025-12-16T19:34:24.661489+00:00",
        "meta_object_name": "COSMOS 2251 DEB",
        "meta_object_id": "1993-036DS",
        "meta_epoch": "2025-12-14T22:36:44.358048",
        "meta_mean_motion": 14.48495775,
        "meta_eccentricity": 0.00481582,
        "meta_inclination": 74.0328,
        "meta_ra_of_asc_node": 179.5185,
        "meta_arg_of_pericenter": 281.6897,
        "meta_mean_anomaly": 198.3772,
        "meta_ephemeris_type": 0,
        "meta_classification_type": "U",
        "meta_norad_cat_id": 33913,
        "meta_element_set_no": 999,
        "meta_rev_at_epoch": 88489,
        "meta_bstar": 0.00047894941,
        "meta_mean_motion_dot": 1.795e-05,
        "meta_mean_motion_ddot": 0,
        "tle_line1": "1 33913U 93036DS  25348.94218007  .00001795  00000+0  47895-3 0  9990",
        "tle_line2": "2 33913  74.0328 179.5185 0048158 281.6897 198.3772 14.48495775884896"
      },
      "geometry": {
        "type": "Point",
        "coordinates": [
          -8.316421682684007,
          14.760144096623655
        ]
      }
    },
    {
      "type": "Feature",
      "properties": {
        "norad_id": 33914,
        "name": "COSMOS 2251 DEB",
        "group": "cosmos-2251-debris",
        "lat": 74.01406119934524,
        "lon": 92.95500923306103,
        "alt_km": 778.2820833156693,
        "timestamp": "2025-12-16T19:34:24.661500+00:00",
        "meta_object_name": "COSMOS 2251 DEB",
        "meta_object_id": "1993-036DT",
        "meta_epoch": "2025-12-15T19:27:51.554304",
        "meta_mean_motion": 13.71986741,
        "meta_eccentricity": 0.03010057,
        "meta_inclination": 74.0912,
        "meta_ra_of_asc_node": 10.0334,
        "meta_arg_of_pericenter": 112.3269,
        "meta_mean_anomaly": 57.7086,
        "meta_ephemeris_type": 0,
        "meta_classification_type": "U",
        "meta_norad_cat_id": 33914,
        "meta_element_set_no": 999,
        "meta_rev_at_epoch": 84123,
        "meta_bstar": 0.0002753398,
        "meta_mean_motion_dot": 3.26e-06,
        "meta_mean_motion_ddot": 0,
        "tle_line1": "1 33914U 93036DT  25349.81101336  .00000326  00000+0  27534-3 0  9991",
        "tle_line2": "2 33914  74.0912  10.0334 0301005 112.3269  57.7086 13.71986741841237"
      },
      "geometry": {
        "type": "Point",
        "coordinates": [
          92.95500923306103,
          74.01406119934524
        ]
      }
    },
    {
      "type": "Feature",
      "properties": {
        "norad_id": 33915,
        "name": "COSMOS 2251 DEB",
        "group": "cosmos-2251-debris",
        "lat": 52.16274686530809,
        "lon": 48.25278073307465,
        "alt_km": 734.8874378119372,
        "timestamp": "2025-12-16T19:34:24.661510+00:00",
        "meta_object_name": "COSMOS 2251 DEB",
        "meta_object_id": "1993-036DU",
        "meta_epoch": "2025-12-15T12:05:20.345280",
        "meta_mean_motion": 14.35089557,
        "meta_eccentricity": 0.01042753,
        "meta_inclination": 74.0435,
        "meta_ra_of_asc_node": 29.0418,
        "meta_arg_of_pericenter": 120.8608,
        "meta_mean_anomaly": 0.7388,
        "meta_ephemeris_type": 0,
        "meta_classification_type": "U",
        "meta_norad_cat_id": 33915,
        "meta_element_set_no": 999,
        "meta_rev_at_epoch": 87797,
        "meta_bstar": 0.00036600235,
        "meta_mean_motion_dot": 1.085e-05,
        "meta_mean_motion_ddot": 0,
        "tle_line1": "1 33915U 93036DU  25349.50370770  .00001085  00000+0  36600-3 0  9995",
        "tle_line2": "2 33915  74.0435  29.0418 0104275 120.8608   0.7388 14.35089557877975"
      },
      "geometry": {
        "type": "Point",
        "coordinates": [
          48.25278073307465,
          52.16274686530809
        ]
      }
    },
    {
      "type": "Feature",
      "properties": {
        "norad_id": 33916,
        "name": "COSMOS 2251 DEB",
        "group": "cosmos-2251-debris",
        "lat": -47.63156466879502,
        "lon": 15.623555471365771,
        "alt_km": 1064.5495076531151,
        "timestamp": "2025-12-16T19:34:24.661520+00:00",
        "meta_object_name": "COSMOS 2251 DEB",
        "meta_object_id": "1993-036DV",
        "meta_epoch": "2025-12-15T19:53:03.154272",
        "meta_mean_motion": 13.68617723,
        "meta_eccentricity": 0.03252173,
        "meta_inclination": 74.0526,
        "meta_ra_of_asc_node": 35.5134,
        "meta_arg_of_pericenter": 206.9993,
        "meta_mean_anomaly": 277.8354,
        "meta_ephemeris_type": 0,
        "meta_classification_type": "U",
        "meta_norad_cat_id": 33916,
        "meta_element_set_no": 999,
        "meta_rev_at_epoch": 83933,
        "meta_bstar": 0.00040084878,
        "meta_mean_motion_dot": 4.75e-06,
        "meta_mean_motion_ddot": 0,
        "tle_line1": "1 33916U 93036DV  25349.82850873  .00000475  00000+0  40085-3 0  9992",
        "tle_line2": "2 33916  74.0526  35.5134 0325217 206.9993 277.8354 13.68617723839333"
      },
      "geometry": {
        "type": "Point",
        "coordinates": [
          15.623555471365771,
          -47.63156466879502
        ]
      }
    },
    {
      "type": "Feature",
      "properties": {
        "norad_id": 33917,
        "name": "COSMOS 2251 DEB",
        "group": "cosmos-2251-debris",
        "lat": 31.751448369237334,
        "lon": 125.86600277540845,
        "alt_km": 1243.905878296172,
        "timestamp": "2025-12-16T19:34:24.661531+00:00",
        "meta_object_name": "COSMOS 2251 DEB",
        "meta_object_id": "1993-036DW",
        "meta_epoch": "2025-12-15T18:51:18.584928",
        "meta_mean_motion": 13.69365396,
        "meta_eccentricity": 0.03313121,
        "meta_inclination": 74.107,
        "meta_ra_of_asc_node": 117.3992,
        "meta_arg_of_pericenter": 217.6975,
        "meta_mean_anomaly": 140.0512,
        "meta_ephemeris_type": 0,
        "meta_classification_type": "U",
        "meta_norad_cat_id": 33917,
        "meta_element_set_no": 999,
        "meta_rev_at_epoch": 83775,
        "meta_bstar": 0.0007436771,
        "meta_mean_motion_dot": 9.27e-06,
        "meta_mean_motion_ddot": 0,
        "tle_line1": "1 33917U 93036DW  25349.78563177  .00000927  00000+0  74368-3 0  9999",
        "tle_line2": "2 33917  74.1070 117.3992 0331312 217.6975 140.0512 13.69365396837750"
      },
      "geometry": {
        "type": "Point",
        "coordinates": [
          125.86600277540845,
          31.751448369237334
        ]
      }
    },
    {
      "type": "Feature",
      "properties": {
        "norad_id": 33920,
        "name": "COSMOS 2251 DEB",
        "group": "cosmos-2251-debris",
        "lat": -19.943852295190318,
        "lon": -75.26773841249543,
        "alt_km": 683.5018601453694,
        "timestamp": "2025-12-16T19:34:24.661542+00:00",
        "meta_object_name": "COSMOS 2251 DEB",
        "meta_object_id": "1993-036DZ",
        "meta_epoch": "2025-12-14T21:34:08.732352",
        "meta_mean_motion": 14.58318284,
        "meta_eccentricity": 0.00381438,
        "meta_inclination": 74.0616,
        "meta_ra_of_asc_node": 294.325,
        "meta_arg_of_pericenter": 300.7262,
        "meta_mean_anomaly": 59.0147,
        "meta_ephemeris_type": 0,
        "meta_classification_type": "U",
        "meta_norad_cat_id": 33920,
        "meta_element_set_no": 999,
        "meta_rev_at_epoch": 88146,
        "meta_bstar": 0.0011755053,
        "meta_mean_motion_dot": 5.467e-05,
        "meta_mean_motion_ddot": 0,
        "tle_line1": "1 33920U 93036DZ  25348.89871218  .00005467  00000+0  11755-2 0  9996",
        "tle_line2": "2 33920  74.0616 294.3250 0038143 300.7262  59.0147 14.58318284881464"
      },
      "geometry": {
        "type": "Point",
        "coordinates": [
          -75.26773841249543,
          -19.943852295190318
        ]
      }
    },
    {
      "type": "Feature",
      "properties": {
        "norad_id": 33922,
        "name": "COSMOS 2251 DEB",
        "group": "cosmos-2251-debris",
        "lat": -7.556588667852993,
        "lon": 137.94665594901088,
        "alt_km": 734.2021162699266,
        "timestamp": "2025-12-16T19:34:24.661552+00:00",
        "meta_object_name": "COSMOS 2251 DEB",
        "meta_object_id": "1993-036EB",
        "meta_epoch": "2025-12-15T21:07:06.780576",
        "meta_mean_motion": 14.49519761,
        "meta_eccentricity": 0.00232227,
        "meta_inclination": 74.0466,
        "meta_ra_of_asc_node": 141.8751,
        "meta_arg_of_pericenter": 252.0966,
        "meta_mean_anomaly": 259.5452,
        "meta_ephemeris_type": 0,
        "meta_classification_type": "U",
        "meta_norad_cat_id": 33922,
        "meta_element_set_no": 999,
        "meta_rev_at_epoch": 88623,
        "meta_bstar": 0.00040253856,
        "meta_mean_motion_dot": 1.521e-05,
        "meta_mean_motion_ddot": 0,
        "tle_line1": "1 33922U 93036EB  25349.87993959  .00001521  00000+0  40254-3 0  9998",
        "tle_line2": "2 33922  74.0466 141.8751 0023222 252.0966 259.5452 14.49519761886232"
      },
      "geometry": {
        "type": "Point",
        "coordinates": [
          137.94665594901088,
          -7.556588667852993
        ]
      }
    }
  ]
}